[{"OBJECT_NAME":"STARLINK-5706","OBJECT_ID":"2023-015AR","EPOCH":"2026-03-09T22:00:01.999584","MEAN_MOTION":15.11306207,"ECCENTRICITY":0.00017122,"INCLINATION":43.0008,"RA_OF_ASC_NODE":337.2757,"ARG_OF_PERICENTER":259.2891,"MEAN_ANOMALY":97.8373,"EPHEMERIS_TYPE":0,"CLASSIFICATION_TYPE":"U","NORAD_CAT_ID":55488,"ELEMENT_SET_NO":999,"REV_AT_EPOCH":577,"BSTAR":0.0010391091,"MEAN_MOTION_DOT":0.00017632,"MEAN_MOTION_DDOT":0},{"OBJECT_NAME":"CHAMRAN-1","OBJECT_ID":"2024-165B","EPOCH":"2026-03-09T21:50:33.228384","MEAN_MOTION":15.10235792,"ECCENTRICITY":0.0045019,"INCLINATION":64.0789,"RA_OF_ASC_NODE":8.4365,"ARG_OF_PERICENTER":310.8781,"MEAN_ANOMALY":48.8437,"EPHEMERIS_TYPE":0,"CLASSIFICATION_TYPE":"U","NORAD_CAT_ID":61072,"ELEMENT_SET_NO":999,"REV_AT_EPOCH":8166,"BSTAR":0.0004432,"MEAN_MOTION_DOT":7.263e-5,"MEAN_MOTION_DDOT":0}]
